Satellite: AO-07
Catalog number: 7530
Epoch time: 17348.522924
Element set: 999
Inclination: 101.659900 deg
RA of node: 313.827200 deg
Eccentricity: 0.001210
Arg of perigee: 334.324800 deg
Mean anomaly: 139.217300 deg
Mean motion: 12.536302 rev/day
Decay rate: -3.900000e-07 rev/day^2
Epoch rev: 9712

Satellite: UO-11
Catalog number: 14781
Epoch time: 17348.731905
Element set: 999
Inclination: 97.674700 deg
RA of node: 27.561500 deg
Eccentricity: 0.000778
Arg of perigee: 337.444200 deg
Mean anomaly: 22.642900 deg
Mean motion: 14.829649 rev/day
Decay rate: 7.800000e-07 rev/day^2
Epoch rev: 8171

Satellite: LO-19
Catalog number: 20442
Epoch time: 17348.794151
Element set: 999
Inclination: 98.592700 deg
RA of node: 283.597400 deg
Eccentricity: 0.001141
Arg of perigee: 340.016000 deg
Mean anomaly: 20.057500 deg
Mean motion: 14.328813 rev/day
Decay rate: 1.300000e-07 rev/day^2
Epoch rev: 4574

Satellite: HUBBLE
Catalog number: 20580
Epoch time: 17348.202140
Element set: 999
Inclination: 28.469300 deg
RA of node: 257.875300 deg
Eccentricity: 0.000252
Arg of perigee: 311.838500 deg
Mean anomaly: 176.291700 deg
Mean motion: 15.089436 rev/day
Decay rate: 4.800000e-06 rev/day^2
Epoch rev: 3174

Satellite: MET-2/21
Catalog number: 22782
Epoch time: 17348.640107
Element set: 999
Inclination: 82.550100 deg
RA of node: 240.372300 deg
Eccentricity: 0.002125
Arg of perigee: 286.094900 deg
Mean anomaly: 134.914000 deg
Mean motion: 13.838064 rev/day
Decay rate: -2.000000e-08 rev/day^2
Epoch rev: 2263

Satellite: AO-27
Catalog number: 22825
Epoch time: 17348.503838
Element set: 999
Inclination: 98.838000 deg
RA of node: 316.528900 deg
Eccentricity: 0.000870
Arg of perigee: 158.655900 deg
Mean anomaly: 201.498800 deg
Mean motion: 14.300164 rev/day
Decay rate: 3.000000e-08 rev/day^2
Epoch rev: 2629

Satellite: IO-26
Catalog number: 22826
Epoch time: 17348.493402
Element set: 999
Inclination: 98.832300 deg
RA of node: 316.578800 deg
Eccentricity: 0.000938
Arg of perigee: 149.586800 deg
Mean anomaly: 210.585900 deg
Mean motion: 14.303468 rev/day
Decay rate: 8.000000e-08 rev/day^2
Epoch rev: 2631

Satellite: FO-29
Catalog number: 24278
Epoch time: 17348.588996
Element set: 999
Inclination: 98.533500 deg
RA of node: 207.594100 deg
Eccentricity: 0.034956
Arg of perigee: 229.685300 deg
Mean anomaly: 127.325900 deg
Mean motion: 13.530804 rev/day
Decay rate: -5.400000e-07 rev/day^2
Epoch rev: 530

Satellite: NOAA-15
Catalog number: 25338
Epoch time: 17348.564663
Element set: 999
Inclination: 98.777700 deg
RA of node: 359.798400 deg
Eccentricity: 0.001128
Arg of perigee: 47.263600 deg
Mean anomaly: 312.949100 deg
Mean motion: 14.258305 rev/day
Decay rate: 3.600000e-07 rev/day^2
Epoch rev: 1871

Satellite: GO-32
Catalog number: 25397
Epoch time: 17348.400151
Element set: 999
Inclination: 98.630300 deg
RA of node: 287.092400 deg
Eccentricity: 0.000137
Arg of perigee: 147.887400 deg
Mean anomaly: 212.238800 deg
Mean motion: 14.236359 rev/day
Decay rate: -1.000000e-07 rev/day^2
Epoch rev: 92

Satellite: ISS
Catalog number: 25544
Epoch time: 17352.515606
Element set: 906
Inclination: 51.639400 deg
RA of node: 199.424100 deg
Eccentricity: 0.000302
Arg of perigee: 264.503000 deg
Mean anomaly: 95.577900 deg
Mean motion: 15.541611 rev/day
Decay rate: 1.671700e-04 rev/day^2
Epoch rev: 1041

Satellite: NO-44
Catalog number: 26931
Epoch time: 17348.425511
Element set: 999
Inclination: 67.051500 deg
RA of node: 346.146600 deg
Eccentricity: 0.000523
Arg of perigee: 269.538800 deg
Mean anomaly: 90.511300 deg
Mean motion: 14.304871 rev/day
Decay rate: 7.000000e-08 rev/day^2
Epoch rev: 8460

Satellite: SO-50
Catalog number: 27607
Epoch time: 17348.374946
Element set: 999
Inclination: 64.555900 deg
RA of node: 294.906800 deg
Eccentricity: 0.004256
Arg of perigee: 16.494400 deg
Mean anomaly: 343.753200 deg
Mean motion: 14.754017 rev/day
Decay rate: 2.800000e-07 rev/day^2
Epoch rev: 8056

Satellite: CO-55
Catalog number: 27844
Epoch time: 17348.760320
Element set: 999
Inclination: 98.688700 deg
RA of node: 355.131900 deg
Eccentricity: 0.000977
Arg of perigee: 179.286500 deg
Mean anomaly: 180.832800 deg
Mean motion: 14.220819 rev/day
Decay rate: 6.500000e-07 rev/day^2
Epoch rev: 7499

Satellite: CO-57
Catalog number: 27848
Epoch time: 17348.527820
Element set: 999
Inclination: 98.697700 deg
RA of node: 355.234900 deg
Eccentricity: 0.000946
Arg of perigee: 189.806700 deg
Mean anomaly: 170.292700 deg
Mean motion: 14.216906 rev/day
Decay rate: 6.000000e-07 rev/day^2
Epoch rev: 7497

Satellite: RS-22
Catalog number: 27939
Epoch time: 17348.849220
Element set: 999
Inclination: 97.963600 deg
RA of node: 128.063700 deg
Eccentricity: 0.001327
Arg of perigee: 19.050500 deg
Mean anomaly: 102.040500 deg
Mean motion: 14.666397 rev/day
Decay rate: 9.800000e-07 rev/day^2
Epoch rev: 7597

Satellite: NOAA-18
Catalog number: 28654
Epoch time: 17348.562634
Element set: 999
Inclination: 99.167500 deg
RA of node: 15.053400 deg
Eccentricity: 0.001345
Arg of perigee: 286.573900 deg
Mean anomaly: 73.395500 deg
Mean motion: 14.123605 rev/day
Decay rate: 1.500000e-07 rev/day^2
Epoch rev: 6477

Satellite: CO-58
Catalog number: 28895
Epoch time: 17348.405298
Element set: 999
Inclination: 97.883500 deg
RA of node: 142.635700 deg
Eccentricity: 0.001562
Arg of perigee: 295.435800 deg
Mean anomaly: 64.522800 deg
Mean motion: 14.634853 rev/day
Decay rate: 1.550000e-06 rev/day^2
Epoch rev: 6468

Satellite: Falconsat-3
Catalog number: 30776
Epoch time: 17348.446072
Element set: 999
Inclination: 35.436700 deg
RA of node: 2.005000 deg
Eccentricity: 0.000315
Arg of perigee: 176.762500 deg
Mean anomaly: 183.312200 deg
Mean motion: 15.335917 rev/day
Decay rate: 2.766000e-05 rev/day^2
Epoch rev: 5959

Satellite: CO-65
Catalog number: 32785
Epoch time: 17348.803676
Element set: 999
Inclination: 97.555300 deg
RA of node: 4.722900 deg
Eccentricity: 0.001171
Arg of perigee: 292.410700 deg
Mean anomaly: 67.586900 deg
Mean motion: 14.880263 rev/day
Decay rate: 2.660000e-06 rev/day^2
Epoch rev: 5217

Satellite: AAUSAT2
Catalog number: 32788
Epoch time: 17348.533496
Element set: 999
Inclination: 97.541000 deg
RA of node: 17.562300 deg
Eccentricity: 0.001060
Arg of perigee: 244.036100 deg
Mean anomaly: 115.976800 deg
Mean motion: 14.941497 rev/day
Decay rate: 2.550000e-06 rev/day^2
Epoch rev: 5225

