AO-07
1 07530U 74089B   17348.52292424 -.00000039  00000-0  34057-4 0  9992
2 07530 101.6599 313.8272 0012105 334.3248 139.2173 12.53630165971229
UO-11
1 14781U 84021B   17348.73190474  .00000078  00000-0  15803-4 0  9990
2 14781  97.6747  27.5615 0007783 337.4442  22.6429 14.82964876817108
LO-19
1 20442U 90005G   17348.79415146  .00000013  00000-0  21008-4 0  9995
2 20442  98.5927 283.5974 0011413 340.0160  20.0575 14.32881304457487
HUBBLE
1 20580U 90037B   17348.20214005  .00000480  00000-0  18496-4 0  9995
2 20580 028.4693 257.8753 0002520 311.8385 176.2917 15.08943609317418
MET-2/21
1 22782U 93055A   17348.64010689 -.00000002  00000-0 -14875-4 0  9993
2 22782 082.5501 240.3723 0021252 286.0949 134.9140 13.83806374226381
AO-27
1 22825U 93061C   17348.50383765  .00000003  00000-0  18903-4 0  9996
2 22825 098.8380 316.5289 0008704 158.6559 201.4988 14.30016402262901
IO-26
1 22826U 93061D   17348.49340159  .00000008  00000-0  20678-4 0  9992
2 22826 098.8323 316.5788 0009379 149.5868 210.5859 14.30346759263106
FO-29
1 24278U 96046B   17348.58899565 -.00000054  00000-0 -16674-4 0  9995
2 24278 098.5335 207.5941 0349555 229.6853 127.3259 13.53080423053020
NOAA-15
1 25338U 98030A   17348.56466307  .00000036  00000-0  34157-4 0  9994
2 25338  98.7777 359.7984 0011285  47.2636 312.9491 14.25830545 18711
GO-32
1 25397U 98043D   17348.40015077 -.00000010  00000-0  14628-4 0  9994
2 25397 098.6303 287.0924 0001373 147.8874 212.2388 14.23635903009216
ISS
1 25544U 98067A   17352.51560558  .00016717  00000-0  10270-3 0  9066
2 25544  51.6394 199.4241 0003017 264.5030  95.5779 15.54161089 10419
NO-44
1 26931U 01043C   17348.42551134  .00000007  00000-0  34664-4 0  9991
2 26931 067.0515 346.1466 0005231 269.5388 090.5113 14.30487125846056
SO-50
1 27607U 02058C   17348.37494559  .00000028  00000-0  24611-4 0  9994
2 27607  64.5559 294.9068 0042565  16.4944 343.7532 14.75401712805693
CO-55
1 27844U 03031E   17348.76031960  .00000065  00000-0  48884-4 0  9994
2 27844  98.6887 355.1319 0009768 179.2865 180.8328 14.22081948749984
CO-57
1 27848U 03031J   17348.52781987  .00000060  00000-0  46987-4 0  9990
2 27848 098.6977 355.2349 0009461 189.8067 170.2927 14.21690568749793
RS-22
1 27939U 03042A   17348.84922039  .00000098  00000-0  26172-4 0  9998
2 27939  97.9636 128.0637 0013267  19.0505 102.0405 14.66639682759798
NOAA-18
1 28654U 05018A   17348.56263413  .00000015  00000-0  33714-4 0  9990
2 28654  99.1675  15.0534 0013447 286.5739  73.3955 14.12360473647719
CO-58
1 28895U 05043F   17348.40529841  .00000155  00000-0  38602-4 0  9994
2 28895  97.8835 142.6357 0015616 295.4358  64.5228 14.63485309646845
Falconsat-3
1 30776U 07006E   17348.44607235  .00002766  00000-0  84664-4 0  9993
2 30776 035.4367 002.0050 0003147 176.7625 183.3122 15.33591657595935
CO-65
1 32785U 08021C   17348.80367565  .00000266  00000-0  34549-4 0  9992
2 32785  97.5553   4.7229 0011711 292.4107  67.5869 14.88026323521759
AAUSAT2
1 32788U 08021F   17348.53349634  .00000255  00000-0  28949-4 0  9997
2 32788 097.5410 017.5623 0010599 244.0361 115.9768 14.94149726522502
